{
"type": "FeatureCollection",
"name": "metro",
"crs": { "type": "name", "properties": { "name": "urn:ogc:def:crs:OGC:1.3:CRS84" } },
"features": [
{ "type": "Feature", "properties": { "osm_id": 60215284, "name": "Schlachthausgasse" }, "geometry": { "type": "Point", "coordinates": [ 16.4066043, 48.194479 ] } },
{ "type": "Feature", "properties": { "osm_id": 62687115, "name": "Gasometer" }, "geometry": { "type": "Point", "coordinates": [ 16.4172645, 48.1848943 ] } },
{ "type": "Feature", "properties": { "osm_id": 62687123, "name": "Zippererstraße" }, "geometry": { "type": "Point", "coordinates": [ 16.4119574, 48.1802494 ] } },
{ "type": "Feature", "properties": { "osm_id": 67029576, "name": "Leopoldau" }, "geometry": { "type": "Point", "coordinates": [ 16.4520703, 48.277582 ] } },
{ "type": "Feature", "properties": { "osm_id": 69468988, "name": "Rochusgasse" }, "geometry": { "type": "Point", "coordinates": [ 16.3922629, 48.2020946 ] } },
{ "type": "Feature", "properties": { "osm_id": 69484904, "name": "Enkplatz" }, "geometry": { "type": "Point", "coordinates": [ 16.4147471, 48.1747314 ] } },
{ "type": "Feature", "properties": { "osm_id": 115184107, "name": "Kardinal-Nagl-Platz" }, "geometry": { "type": "Point", "coordinates": [ 16.3998577, 48.1975959 ] } },
{ "type": "Feature", "properties": { "osm_id": 117527786, "name": "Simmering" }, "geometry": { "type": "Point", "coordinates": [ 16.4205339, 48.1697771 ] } },
{ "type": "Feature", "properties": { "osm_id": 140069854, "name": "Landstraße" }, "geometry": { "type": "Point", "coordinates": [ 16.3856676, 48.2057626 ] } },
{ "type": "Feature", "properties": { "osm_id": 1352828685, "name": "Meidling Hauptstraße" }, "geometry": { "type": "Point", "coordinates": [ 16.3279206, 48.1836444 ] } },
{ "type": "Feature", "properties": { "osm_id": 2018072719, "name": "Alaudagasse" }, "geometry": { "type": "Point", "coordinates": [ 16.3823533, 48.1537676 ] } },
{ "type": "Feature", "properties": { "osm_id": 2018072720, "name": "Altes Landgut" }, "geometry": { "type": "Point", "coordinates": [ 16.3832449, 48.1622993 ] } },
{ "type": "Feature", "properties": { "osm_id": 2018072721, "name": "Neulaa" }, "geometry": { "type": "Point", "coordinates": [ 16.3856058, 48.1457661 ] } },
{ "type": "Feature", "properties": { "osm_id": 2018072722, "name": "Oberlaa" }, "geometry": { "type": "Point", "coordinates": [ 16.3998868, 48.1423146 ] } },
{ "type": "Feature", "properties": { "osm_id": 2018072723, "name": "Troststraße" }, "geometry": { "type": "Point", "coordinates": [ 16.3802695, 48.1690144 ] } },
{ "type": "Feature", "properties": { "osm_id": 3071028227, "name": "Bahnhof Meidling" }, "geometry": { "type": "Point", "coordinates": [ 16.3314176, 48.173527 ] } },
{ "type": "Feature", "properties": { "osm_id": 3124681405, "name": "Südtiroler Platz – Hauptbahnhof" }, "geometry": { "type": "Point", "coordinates": [ 16.3734414, 48.187103 ] } },
{ "type": "Feature", "properties": { "osm_id": 3324474915, "name": "Handelskai" }, "geometry": { "type": "Point", "coordinates": [ 16.3856637, 48.2418469 ] } },
{ "type": "Feature", "properties": { "osm_id": 3488454904, "name": "Heiligenstadt" }, "geometry": { "type": "Point", "coordinates": [ 16.3655402, 48.2480509 ] } },
{ "type": "Feature", "properties": { "osm_id": 3488513522, "name": "Spittelau" }, "geometry": { "type": "Point", "coordinates": [ 16.3580975, 48.2355937 ] } },
{ "type": "Feature", "properties": { "osm_id": 3488513525, "name": "Spittelau" }, "geometry": { "type": "Point", "coordinates": [ 16.3585731, 48.2347937 ] } },
{ "type": "Feature", "properties": { "osm_id": 3500528328, "name": "Stephansplatz" }, "geometry": { "type": "Point", "coordinates": [ 16.3715166, 48.2080838 ] } },
{ "type": "Feature", "properties": { "osm_id": 3500582336, "name": "Taubstummengasse" }, "geometry": { "type": "Point", "coordinates": [ 16.370437, 48.1936533 ] } },
{ "type": "Feature", "properties": { "osm_id": 3503264091, "name": "Karlsplatz" }, "geometry": { "type": "Point", "coordinates": [ 16.3695975, 48.2003906 ] } },
{ "type": "Feature", "properties": { "osm_id": 3535818951, "name": "Hütteldorf" }, "geometry": { "type": "Point", "coordinates": [ 16.260844, 48.1969699 ] } },
{ "type": "Feature", "properties": { "osm_id": 3598290667, "name": "Aspern Nord" }, "geometry": { "type": "Point", "coordinates": [ 16.5044888, 48.2345026 ] } },
{ "type": "Feature", "properties": { "osm_id": 3598290671, "name": "Hausfeldstraße" }, "geometry": { "type": "Point", "coordinates": [ 16.485618, 48.2334122 ] } },
{ "type": "Feature", "properties": { "osm_id": 3598308198, "name": "Seestadt" }, "geometry": { "type": "Point", "coordinates": [ 16.5083947, 48.2262278 ] } },
{ "type": "Feature", "properties": { "osm_id": 3598326412, "name": "Lina-Loos-Platz" }, "geometry": { "type": "Point", "coordinates": [ 16.4785678, 48.2284388 ] } },
{ "type": "Feature", "properties": { "osm_id": 3862884256, "name": "Messe-Prater" }, "geometry": { "type": "Point", "coordinates": [ 16.4049308, 48.2177786 ] } },
{ "type": "Feature", "properties": { "osm_id": 3862884757, "name": "Praterstern" }, "geometry": { "type": "Point", "coordinates": [ 16.3930785, 48.2197676 ] } },
{ "type": "Feature", "properties": { "osm_id": 3862884758, "name": "Praterstern" }, "geometry": { "type": "Point", "coordinates": [ 16.3938648, 48.2185293 ] } },
{ "type": "Feature", "properties": { "osm_id": 3993274357, "name": "Braunschweiggasse" }, "geometry": { "type": "Point", "coordinates": [ 16.29582, 48.1894027 ] } },
{ "type": "Feature", "properties": { "osm_id": 3993274358, "name": "Hietzing" }, "geometry": { "type": "Point", "coordinates": [ 16.3045807, 48.1875762 ] } },
{ "type": "Feature", "properties": { "osm_id": 3993274359, "name": "Längenfeldgasse" }, "geometry": { "type": "Point", "coordinates": [ 16.3350083, 48.1848644 ] } },
{ "type": "Feature", "properties": { "osm_id": 3993274360, "name": "Ober St. Veit" }, "geometry": { "type": "Point", "coordinates": [ 16.2761736, 48.192234 ] } },
{ "type": "Feature", "properties": { "osm_id": 3993274361, "name": "Schönbrunn" }, "geometry": { "type": "Point", "coordinates": [ 16.3189401, 48.1860469 ] } },
{ "type": "Feature", "properties": { "osm_id": 3993274362, "name": "Unter St. Veit" }, "geometry": { "type": "Point", "coordinates": [ 16.2859904, 48.1911222 ] } },
{ "type": "Feature", "properties": { "osm_id": 3993298632, "name": "Stadtpark" }, "geometry": { "type": "Point", "coordinates": [ 16.3797236, 48.2028863 ] } },
{ "type": "Feature", "properties": { "osm_id": 3993342689, "name": "Kettenbrückengasse" }, "geometry": { "type": "Point", "coordinates": [ 16.3580609, 48.1966267 ] } },
{ "type": "Feature", "properties": { "osm_id": 3993342690, "name": "Margaretengürtel" }, "geometry": { "type": "Point", "coordinates": [ 16.3430331, 48.1884872 ] } },
{ "type": "Feature", "properties": { "osm_id": 3993342691, "name": "Pilgramgasse" }, "geometry": { "type": "Point", "coordinates": [ 16.3542814, 48.1921283 ] } },
{ "type": "Feature", "properties": { "osm_id": 4003901212, "name": "Friedensbrücke" }, "geometry": { "type": "Point", "coordinates": [ 16.3639754, 48.2278374 ] } },
{ "type": "Feature", "properties": { "osm_id": 4003901213, "name": "Roßauer Lände" }, "geometry": { "type": "Point", "coordinates": [ 16.3675722, 48.2223375 ] } },
{ "type": "Feature", "properties": { "osm_id": 4003949409, "name": "Landstraße" }, "geometry": { "type": "Point", "coordinates": [ 16.3848479, 48.206917 ] } },
{ "type": "Feature", "properties": { "osm_id": 4003977155, "name": "Schottenring" }, "geometry": { "type": "Point", "coordinates": [ 16.3724555, 48.2174157 ] } },
{ "type": "Feature", "properties": { "osm_id": 4003977156, "name": "Schwedenplatz" }, "geometry": { "type": "Point", "coordinates": [ 16.3786747, 48.2117112 ] } },
{ "type": "Feature", "properties": { "osm_id": 4005731390, "name": "Siebenhirten" }, "geometry": { "type": "Point", "coordinates": [ 16.3098385, 48.130521 ] } },
{ "type": "Feature", "properties": { "osm_id": 4005736525, "name": "Floridsdorf" }, "geometry": { "type": "Point", "coordinates": [ 16.4004544, 48.2562225 ] } },
{ "type": "Feature", "properties": { "osm_id": 4008355779, "name": "Alterlaa" }, "geometry": { "type": "Point", "coordinates": [ 16.3168475, 48.1505196 ] } },
{ "type": "Feature", "properties": { "osm_id": 4008355780, "name": "Am Schöpfwerk" }, "geometry": { "type": "Point", "coordinates": [ 16.3242066, 48.1606776 ] } },
{ "type": "Feature", "properties": { "osm_id": 4008355781, "name": "Erlaaer Straße" }, "geometry": { "type": "Point", "coordinates": [ 16.3165351, 48.1419866 ] } },
{ "type": "Feature", "properties": { "osm_id": 4008355782, "name": "Perfektastraße" }, "geometry": { "type": "Point", "coordinates": [ 16.3132527, 48.1366232 ] } },
{ "type": "Feature", "properties": { "osm_id": 4008355785, "name": "Tscherttegasse" }, "geometry": { "type": "Point", "coordinates": [ 16.3277927, 48.1649777 ] } },
{ "type": "Feature", "properties": { "osm_id": 4012141489, "name": "Niederhofstraße" }, "geometry": { "type": "Point", "coordinates": [ 16.3311515, 48.1807704 ] } },
{ "type": "Feature", "properties": { "osm_id": 4073027290, "name": "Stadion" }, "geometry": { "type": "Point", "coordinates": [ 16.4204937, 48.2104985 ] } },
{ "type": "Feature", "properties": { "osm_id": 4073135889, "name": "Donaumarina" }, "geometry": { "type": "Point", "coordinates": [ 16.431461, 48.2063838 ] } },
{ "type": "Feature", "properties": { "osm_id": 4073146389, "name": "Krieau" }, "geometry": { "type": "Point", "coordinates": [ 16.4137446, 48.2146912 ] } },
{ "type": "Feature", "properties": { "osm_id": 4076415290, "name": "Aspernstraße" }, "geometry": { "type": "Point", "coordinates": [ 16.474916, 48.2225692 ] } },
{ "type": "Feature", "properties": { "osm_id": 4076631293, "name": "Donauspital" }, "geometry": { "type": "Point", "coordinates": [ 16.4666399, 48.2194301 ] } },
{ "type": "Feature", "properties": { "osm_id": 4076716391, "name": "Hardeggasse" }, "geometry": { "type": "Point", "coordinates": [ 16.4578116, 48.2208849 ] } },
{ "type": "Feature", "properties": { "osm_id": 4077783491, "name": "Stadlau" }, "geometry": { "type": "Point", "coordinates": [ 16.449558, 48.2197733 ] } },
{ "type": "Feature", "properties": { "osm_id": 4078094389, "name": "Donaustadtbrücke" }, "geometry": { "type": "Point", "coordinates": [ 16.440166, 48.2117999 ] } },
{ "type": "Feature", "properties": { "osm_id": 4086541541, "name": "Taborstraße" }, "geometry": { "type": "Point", "coordinates": [ 16.3813216, 48.2192181 ] } },
{ "type": "Feature", "properties": { "osm_id": 4104690590, "name": "Rathaus" }, "geometry": { "type": "Point", "coordinates": [ 16.3554084, 48.2102064 ] } },
{ "type": "Feature", "properties": { "osm_id": 4113713892, "name": "Volkstheater" }, "geometry": { "type": "Point", "coordinates": [ 16.3578511, 48.2052207 ] } },
{ "type": "Feature", "properties": { "osm_id": 4123615290, "name": "Museumsquartier" }, "geometry": { "type": "Point", "coordinates": [ 16.3612175, 48.2027122 ] } },
{ "type": "Feature", "properties": { "osm_id": 4140677491, "name": "Großfeldsiedlung" }, "geometry": { "type": "Point", "coordinates": [ 16.4478821, 48.2710952 ] } },
{ "type": "Feature", "properties": { "osm_id": 4155298891, "name": "Aderklaaer Straße" }, "geometry": { "type": "Point", "coordinates": [ 16.4516287, 48.2634265 ] } },
{ "type": "Feature", "properties": { "osm_id": 4155452193, "name": "Rennbahnweg" }, "geometry": { "type": "Point", "coordinates": [ 16.4496328, 48.2576086 ] } },
{ "type": "Feature", "properties": { "osm_id": 4155868489, "name": "Kagraner Platz" }, "geometry": { "type": "Point", "coordinates": [ 16.4432723, 48.2502478 ] } },
{ "type": "Feature", "properties": { "osm_id": 4160807391, "name": "Kagran" }, "geometry": { "type": "Point", "coordinates": [ 16.4329191, 48.2430028 ] } },
{ "type": "Feature", "properties": { "osm_id": 4161088301, "name": "Alte Donau" }, "geometry": { "type": "Point", "coordinates": [ 16.4247729, 48.2382709 ] } },
{ "type": "Feature", "properties": { "osm_id": 4161756600, "name": "Westbahnhof" }, "geometry": { "type": "Point", "coordinates": [ 16.3383526, 48.1959011 ] } },
{ "type": "Feature", "properties": { "osm_id": 4161769952, "name": "Schweglerstraße" }, "geometry": { "type": "Point", "coordinates": [ 16.3286297, 48.1976875 ] } },
{ "type": "Feature", "properties": { "osm_id": 4161774320, "name": "Johnstraße" }, "geometry": { "type": "Point", "coordinates": [ 16.3202537, 48.197629 ] } },
{ "type": "Feature", "properties": { "osm_id": 4161779363, "name": "Hütteldorfer Straße" }, "geometry": { "type": "Point", "coordinates": [ 16.311042, 48.2000932 ] } },
{ "type": "Feature", "properties": { "osm_id": 4161779364, "name": "Kendlerstraße" }, "geometry": { "type": "Point", "coordinates": [ 16.3091407, 48.2045699 ] } },
{ "type": "Feature", "properties": { "osm_id": 4167184427, "name": "Keplerplatz" }, "geometry": { "type": "Point", "coordinates": [ 16.3761206, 48.1793508 ] } },
{ "type": "Feature", "properties": { "osm_id": 4167184437, "name": "Reumannplatz" }, "geometry": { "type": "Point", "coordinates": [ 16.3779017, 48.1749578 ] } },
{ "type": "Feature", "properties": { "osm_id": 4169259989, "name": "Kaisermühlen-VIC" }, "geometry": { "type": "Point", "coordinates": [ 16.4164679, 48.2328534 ] } },
{ "type": "Feature", "properties": { "osm_id": 4169472889, "name": "Donauinsel" }, "geometry": { "type": "Point", "coordinates": [ 16.4113907, 48.2292153 ] } },
{ "type": "Feature", "properties": { "osm_id": 4169757308, "name": "Vorgartenstraße" }, "geometry": { "type": "Point", "coordinates": [ 16.4010515, 48.2236245 ] } },
{ "type": "Feature", "properties": { "osm_id": 4174037289, "name": "Nestroyplatz" }, "geometry": { "type": "Point", "coordinates": [ 16.3854553, 48.2152547 ] } },
{ "type": "Feature", "properties": { "osm_id": 4228503593, "name": "Ottakring" }, "geometry": { "type": "Point", "coordinates": [ 16.3113574, 48.2110317 ] } },
{ "type": "Feature", "properties": { "osm_id": 4281875074, "name": "Gumpendorfer Straße" }, "geometry": { "type": "Point", "coordinates": [ 16.3375473, 48.1907351 ] } },
{ "type": "Feature", "properties": { "osm_id": 4281897753, "name": "Westbahnhof" }, "geometry": { "type": "Point", "coordinates": [ 16.3392488, 48.1967433 ] } },
{ "type": "Feature", "properties": { "osm_id": 4281904637, "name": "Burggasse-Stadthalle" }, "geometry": { "type": "Point", "coordinates": [ 16.3372071, 48.2032875 ] } },
{ "type": "Feature", "properties": { "osm_id": 4281927209, "name": "Neue Donau" }, "geometry": { "type": "Point", "coordinates": [ 16.3947025, 48.2462997 ] } },
{ "type": "Feature", "properties": { "osm_id": 4281932864, "name": "Jägerstraße" }, "geometry": { "type": "Point", "coordinates": [ 16.3686815, 48.2352243 ] } },
{ "type": "Feature", "properties": { "osm_id": 4281939061, "name": "Dresdner Straße" }, "geometry": { "type": "Point", "coordinates": [ 16.3801081, 48.2372439 ] } },
{ "type": "Feature", "properties": { "osm_id": 4283722989, "name": "Alser Straße" }, "geometry": { "type": "Point", "coordinates": [ 16.341835, 48.2168044 ] } },
{ "type": "Feature", "properties": { "osm_id": 4283722990, "name": "Josefstädter Straße" }, "geometry": { "type": "Point", "coordinates": [ 16.3391659, 48.2114707 ] } },
{ "type": "Feature", "properties": { "osm_id": 4283722991, "name": "Michelbeuern-AKH" }, "geometry": { "type": "Point", "coordinates": [ 16.3442468, 48.2212405 ] } },
{ "type": "Feature", "properties": { "osm_id": 4283722992, "name": "Nußdorfer Straße" }, "geometry": { "type": "Point", "coordinates": [ 16.3524509, 48.2313294 ] } },
{ "type": "Feature", "properties": { "osm_id": 4283722993, "name": "Thaliastraße" }, "geometry": { "type": "Point", "coordinates": [ 16.3380073, 48.2078001 ] } },
{ "type": "Feature", "properties": { "osm_id": 4283722994, "name": "Währinger Straße-Volksoper" }, "geometry": { "type": "Point", "coordinates": [ 16.349508, 48.2255879 ] } },
{ "type": "Feature", "properties": { "osm_id": 4347738147, "name": "Schottentor" }, "geometry": { "type": "Point", "coordinates": [ 16.363034, 48.2151127 ] } },
{ "type": "Feature", "properties": { "osm_id": 4348320098, "name": "Erdberg" }, "geometry": { "type": "Point", "coordinates": [ 16.4141276, 48.1914392 ] } },
{ "type": "Feature", "properties": { "osm_id": 4348336039, "name": "Herrengasse" }, "geometry": { "type": "Point", "coordinates": [ 16.3651022, 48.2093213 ] } },
{ "type": "Feature", "properties": { "osm_id": 4348336040, "name": "Stubentor" }, "geometry": { "type": "Point", "coordinates": [ 16.3792758, 48.2069483 ] } },
{ "type": "Feature", "properties": { "osm_id": 4348437215, "name": "Neubaugasse" }, "geometry": { "type": "Point", "coordinates": [ 16.3526723, 48.1993161 ] } },
{ "type": "Feature", "properties": { "osm_id": 4348437231, "name": "Zieglergasse" }, "geometry": { "type": "Point", "coordinates": [ 16.3462979, 48.197145 ] } },
{ "type": "Feature", "properties": { "osm_id": 4560843526, "name": "Karlsplatz" }, "geometry": { "type": "Point", "coordinates": [ 16.3691111, 48.2015527 ] } },
{ "type": "Feature", "properties": { "osm_id": 4560843527, "name": "Karlsplatz" }, "geometry": { "type": "Point", "coordinates": [ 16.3691424, 48.2009961 ] } },
{ "type": "Feature", "properties": { "osm_id": 4560843528, "name": "Schottenring" }, "geometry": { "type": "Point", "coordinates": [ 16.3719453, 48.2165609 ] } },
{ "type": "Feature", "properties": { "osm_id": 4560869523, "name": "Volkstheater" }, "geometry": { "type": "Point", "coordinates": [ 16.3590959, 48.2055826 ] } },
{ "type": "Feature", "properties": { "osm_id": 4560869524, "name": "Schwedenplatz" }, "geometry": { "type": "Point", "coordinates": [ 16.377606, 48.2117924 ] } },
{ "type": "Feature", "properties": { "osm_id": 4560869722, "name": "Stephansplatz" }, "geometry": { "type": "Point", "coordinates": [ 16.3720438, 48.2084639 ] } }
]
}
