{
"type": "FeatureCollection",
"name": "schools",
"crs": { "type": "name", "properties": { "name": "urn:ogc:def:crs:OGC:1.3:CRS84" } },
"features": [
{ "type": "Feature", "properties": { "osm_id": 61274271, "name": "HAK/HAS Augarten" }, "geometry": { "type": "Point", "coordinates": [ 16.3722157, 48.2205017 ] } },
{ "type": "Feature", "properties": { "osm_id": 66933665, "name": "Volksschule Jochbergengasse" }, "geometry": { "type": "Point", "coordinates": [ 16.4020724, 48.2799228 ] } },
{ "type": "Feature", "properties": { "osm_id": 76653086, "name": "Museum des Blindenwesens" }, "geometry": { "type": "Point", "coordinates": [ 16.3992724, 48.2063691 ] } },
{ "type": "Feature", "properties": { "osm_id": 111110224, "name": "Volksschule Marktgasse" }, "geometry": { "type": "Point", "coordinates": [ 16.357504, 48.2273753 ] } },
{ "type": "Feature", "properties": { "osm_id": 248527643, "name": "VS Kindermanngasse" }, "geometry": { "type": "Point", "coordinates": [ 16.331419, 48.2178847 ] } },
{ "type": "Feature", "properties": { "osm_id": 250077134, "name": "Marianum" }, "geometry": { "type": "Point", "coordinates": [ 16.3284924, 48.2291548 ] } },
{ "type": "Feature", "properties": { "osm_id": 250601938, "name": "Volksschule Cottagegasse" }, "geometry": { "type": "Point", "coordinates": [ 16.33993, 48.228996 ] } },
{ "type": "Feature", "properties": { "osm_id": 251209523, "name": "ÖKO Mittelschule" }, "geometry": { "type": "Point", "coordinates": [ 16.3186844, 48.1505359 ] } },
{ "type": "Feature", "properties": { "osm_id": 293790337, "name": "De la Salle Schule - Schulbrüder Währing" }, "geometry": { "type": "Point", "coordinates": [ 16.3412415, 48.2243412 ] } },
{ "type": "Feature", "properties": { "osm_id": 323060834, "name": "Leopoldschule" }, "geometry": { "type": "Point", "coordinates": [ 16.3749473, 48.2212781 ] } },
{ "type": "Feature", "properties": { "osm_id": 330022623, "name": "Ganztagsvolksschule Alt Erlaa" }, "geometry": { "type": "Point", "coordinates": [ 16.3145533, 48.1515545 ] } },
{ "type": "Feature", "properties": { "osm_id": 330374228, "name": "Kolonitzschule" }, "geometry": { "type": "Point", "coordinates": [ 16.3902564, 48.2101554 ] } },
{ "type": "Feature", "properties": { "osm_id": 330374988, "name": "VS Kleine Sperlgasse" }, "geometry": { "type": "Point", "coordinates": [ 16.3774902, 48.215473 ] } },
{ "type": "Feature", "properties": { "osm_id": 331651017, "name": "Musikschule Leopoldstadt" }, "geometry": { "type": "Point", "coordinates": [ 16.3800582, 48.2154449 ] } },
{ "type": "Feature", "properties": { "osm_id": 338454525, "name": "Neue Mittelschule Kleine Sperlgasse" }, "geometry": { "type": "Point", "coordinates": [ 16.3779575, 48.2154295 ] } },
{ "type": "Feature", "properties": { "osm_id": 338457425, "name": "Private Volksschule und Kindergarten St. Elisabeth" }, "geometry": { "type": "Point", "coordinates": [ 16.3746512, 48.2215128 ] } },
{ "type": "Feature", "properties": { "osm_id": 338831262, "name": "KMS Augartenschule" }, "geometry": { "type": "Point", "coordinates": [ 16.3757854, 48.2220559 ] } },
{ "type": "Feature", "properties": { "osm_id": 338831271, "name": "Beth Jakov Jüdische Mädchenschule für wirtschaftliche Berufe" }, "geometry": { "type": "Point", "coordinates": [ 16.3768387, 48.2203818 ] } },
{ "type": "Feature", "properties": { "osm_id": 338832071, "name": "Bundes-Blindenerziehungsinstitut" }, "geometry": { "type": "Point", "coordinates": [ 16.399753, 48.2063714 ] } },
{ "type": "Feature", "properties": { "osm_id": 375997317, "name": "Lutherschule und Schülerhort" }, "geometry": { "type": "Point", "coordinates": [ 16.3395388, 48.22047 ] } },
{ "type": "Feature", "properties": { "osm_id": 380816415, "name": "VS 16, Julius Meinl-Gasse" }, "geometry": { "type": "Point", "coordinates": [ 16.3107155, 48.2192149 ] } },
{ "type": "Feature", "properties": { "osm_id": 415906788, "name": "Volksschule Neustiftgasse" }, "geometry": { "type": "Point", "coordinates": [ 16.3413898, 48.2060914 ] } },
{ "type": "Feature", "properties": { "osm_id": 418169605, "name": "Evangelische Volksschule Leopoldstadt" }, "geometry": { "type": "Point", "coordinates": [ 16.3855983, 48.2162724 ] } },
{ "type": "Feature", "properties": { "osm_id": 418170673, "name": "Volksschule Czerninplatz" }, "geometry": { "type": "Point", "coordinates": [ 16.3875998, 48.214857 ] } },
{ "type": "Feature", "properties": { "osm_id": 419270993, "name": "pVS evangelische Kirche Karlsplatz 14" }, "geometry": { "type": "Point", "coordinates": [ 16.3686581, 48.1993616 ] } },
{ "type": "Feature", "properties": { "osm_id": 422997387, "name": "Konservatorium für Musik und Dramatische Kunst der Margarete Prayner" }, "geometry": { "type": "Point", "coordinates": [ 16.3629036, 48.1969218 ] } },
{ "type": "Feature", "properties": { "osm_id": 429603728, "name": "Schulzentrum Antonigasse" }, "geometry": { "type": "Point", "coordinates": [ 16.333769, 48.2248919 ] } },
{ "type": "Feature", "properties": { "osm_id": 442544544, "name": "Bildungszentrum Mater Salvatoris" }, "geometry": { "type": "Point", "coordinates": [ 16.339945, 48.1990626 ] } },
{ "type": "Feature", "properties": { "osm_id": 452387588, "name": "Institut Sacre-Coeur d. Erzdiözese Wien" }, "geometry": { "type": "Point", "coordinates": [ 16.3853138, 48.1950754 ] } },
{ "type": "Feature", "properties": { "osm_id": 469989450, "name": "BG & BRG Wien 3 (HIB)" }, "geometry": { "type": "Point", "coordinates": [ 16.3922007, 48.1951535 ] } },
{ "type": "Feature", "properties": { "osm_id": 470623758, "name": "Volksschule Siebenhirten" }, "geometry": { "type": "Point", "coordinates": [ 16.3144752, 48.1288116 ] } },
{ "type": "Feature", "properties": { "osm_id": 471046388, "name": "GRG1 Stubenbastei" }, "geometry": { "type": "Point", "coordinates": [ 16.378104, 48.2068608 ] } },
{ "type": "Feature", "properties": { "osm_id": 476068452, "name": "Volkshochschule Donaustadt" }, "geometry": { "type": "Point", "coordinates": [ 16.4776465, 48.2192707 ] } },
{ "type": "Feature", "properties": { "osm_id": 497126219, "name": "Volksschule Börsegasse" }, "geometry": { "type": "Point", "coordinates": [ 16.3687967, 48.2136167 ] } },
{ "type": "Feature", "properties": { "osm_id": 497147653, "name": "Lise Meitner Realgymnasium" }, "geometry": { "type": "Point", "coordinates": [ 16.3646655, 48.2141596 ] } },
{ "type": "Feature", "properties": { "osm_id": 497147654, "name": "NMS Renngasse" }, "geometry": { "type": "Point", "coordinates": [ 16.368569, 48.2136159 ] } },
{ "type": "Feature", "properties": { "osm_id": 497147655, "name": "Öffentliches Schottengymnasium der Benediktiner in Wien" }, "geometry": { "type": "Point", "coordinates": [ 16.3643485, 48.2121474 ] } },
{ "type": "Feature", "properties": { "osm_id": 497147658, "name": "Gastgewerbefachschule der Wiener Gastwirte" }, "geometry": { "type": "Point", "coordinates": [ 16.3696874, 48.2111421 ] } },
{ "type": "Feature", "properties": { "osm_id": 497155573, "name": "Religionspädagogische Akademie" }, "geometry": { "type": "Point", "coordinates": [ 16.3728781, 48.2078766 ] } },
{ "type": "Feature", "properties": { "osm_id": 497155575, "name": "BORG für Musik und Kunst" }, "geometry": { "type": "Point", "coordinates": [ 16.3751369, 48.20345 ] } },
{ "type": "Feature", "properties": { "osm_id": 497155578, "name": "Akademisches Gymnasium" }, "geometry": { "type": "Point", "coordinates": [ 16.3766125, 48.2015474 ] } },
{ "type": "Feature", "properties": { "osm_id": 534805839, "name": "GRG 21 Ödenburgerstraße" }, "geometry": { "type": "Point", "coordinates": [ 16.4026949, 48.2818485 ] } },
{ "type": "Feature", "properties": { "osm_id": 611644540, "name": "Volksschule Maria Frieden" }, "geometry": { "type": "Point", "coordinates": [ 16.4568778, 48.2183815 ] } },
{ "type": "Feature", "properties": { "osm_id": 649176957, "name": "Parkschule VS Deckergasse" }, "geometry": { "type": "Point", "coordinates": [ 16.3399513, 48.1785948 ] } },
{ "type": "Feature", "properties": { "osm_id": 662872681, "name": "GRG Rahlgasse" }, "geometry": { "type": "Point", "coordinates": [ 16.3618213, 48.2016349 ] } },
{ "type": "Feature", "properties": { "osm_id": 735611668, "name": "Volksschule I" }, "geometry": { "type": "Point", "coordinates": [ 16.4011548, 48.251855 ] } },
{ "type": "Feature", "properties": { "osm_id": 746871894, "name": "VHS Hietzing" }, "geometry": { "type": "Point", "coordinates": [ 16.2868178, 48.1703592 ] } },
{ "type": "Feature", "properties": { "osm_id": 830645080, "name": "Volksschule Gassergasse" }, "geometry": { "type": "Point", "coordinates": [ 16.3610499, 48.1826571 ] } },
{ "type": "Feature", "properties": { "osm_id": 848109554, "name": "private Volksschule" }, "geometry": { "type": "Point", "coordinates": [ 16.3692848, 48.1760898 ] } },
{ "type": "Feature", "properties": { "osm_id": 848217262, "name": "Ganztagesvolksschule Jagdgasse" }, "geometry": { "type": "Point", "coordinates": [ 16.3722057, 48.1762818 ] } },
{ "type": "Feature", "properties": { "osm_id": 922054411, "name": "Private Volksschule Neulandschule" }, "geometry": { "type": "Point", "coordinates": [ 16.3682913, 48.1806132 ] } },
{ "type": "Feature", "properties": { "osm_id": 928623374, "name": "Musikschule" }, "geometry": { "type": "Point", "coordinates": [ 16.3720191, 48.1765847 ] } },
{ "type": "Feature", "properties": { "osm_id": 948326953, "name": "Kooperative Mittelschule Herzgasse" }, "geometry": { "type": "Point", "coordinates": [ 16.3674131, 48.1773522 ] } },
{ "type": "Feature", "properties": { "osm_id": 985785812, "name": "Piaristengymnasium" }, "geometry": { "type": "Point", "coordinates": [ 16.3496168, 48.2108827 ] } },
{ "type": "Feature", "properties": { "osm_id": 1039340589, "name": "Institut für Populationsgenetik" }, "geometry": { "type": "Point", "coordinates": [ 16.4299504, 48.2540638 ] } },
{ "type": "Feature", "properties": { "osm_id": 1164745033, "name": "GWIKU 18 Haizingergasse" }, "geometry": { "type": "Point", "coordinates": [ 16.3394235, 48.2292657 ] } },
{ "type": "Feature", "properties": { "osm_id": 1210981058, "name": "sprach.kult" }, "geometry": { "type": "Point", "coordinates": [ 16.3869772, 48.2388786 ] } },
{ "type": "Feature", "properties": { "osm_id": 1255046342, "name": "Musik- und Singschule Wien" }, "geometry": { "type": "Point", "coordinates": [ 16.4120715, 48.174271 ] } },
{ "type": "Feature", "properties": { "osm_id": 1255046427, "name": "Volkshochschule Simmering" }, "geometry": { "type": "Point", "coordinates": [ 16.4120371, 48.174124 ] } },
{ "type": "Feature", "properties": { "osm_id": 1319048288, "name": "Musikschule Margareten" }, "geometry": { "type": "Point", "coordinates": [ 16.3508658, 48.1886436 ] } },
{ "type": "Feature", "properties": { "osm_id": 1320928831, "name": "VHS polycollege" }, "geometry": { "type": "Point", "coordinates": [ 16.3494754, 48.1824194 ] } },
{ "type": "Feature", "properties": { "osm_id": 1343741824, "name": "VS 16, Odoakergasse" }, "geometry": { "type": "Point", "coordinates": [ 16.3098229, 48.2193191 ] } },
{ "type": "Feature", "properties": { "osm_id": 1347957869, "name": "Mittelschule Mira-Lobe-Weg" }, "geometry": { "type": "Point", "coordinates": [ 16.4565419, 48.2574815 ] } },
{ "type": "Feature", "properties": { "osm_id": 1347957870, "name": "Volksschule Mira-Lobe-Weg" }, "geometry": { "type": "Point", "coordinates": [ 16.4574263, 48.2572818 ] } },
{ "type": "Feature", "properties": { "osm_id": 1362663760, "name": "Mittelschule Schulzentrum Gassergasse" }, "geometry": { "type": "Point", "coordinates": [ 16.3614296, 48.1827912 ] } },
{ "type": "Feature", "properties": { "osm_id": 1420000790, "name": "Friedrich-Zawrel-Schule" }, "geometry": { "type": "Point", "coordinates": [ 16.3948991, 48.2040974 ] } },
{ "type": "Feature", "properties": { "osm_id": 1428953231, "name": "Montessori-Schule im Heiligenkreuzerhof" }, "geometry": { "type": "Point", "coordinates": [ 16.3762272, 48.2099522 ] } },
{ "type": "Feature", "properties": { "osm_id": 1436286235, "name": "GTVS3" }, "geometry": { "type": "Point", "coordinates": [ 16.3975056, 48.1928756 ] } },
{ "type": "Feature", "properties": { "osm_id": 1438302043, "name": "Mittelschule Pyrkergasse" }, "geometry": { "type": "Point", "coordinates": [ 16.3514205, 48.2411041 ] } },
{ "type": "Feature", "properties": { "osm_id": 1438302065, "name": "Musikschule" }, "geometry": { "type": "Point", "coordinates": [ 16.3521915, 48.2400482 ] } },
{ "type": "Feature", "properties": { "osm_id": 1439094480, "name": "Learn quick" }, "geometry": { "type": "Point", "coordinates": [ 16.3663302, 48.1944248 ] } },
{ "type": "Feature", "properties": { "osm_id": 1444705271, "name": "GTVS an der Alten Donau" }, "geometry": { "type": "Point", "coordinates": [ 16.4241104, 48.2365067 ] } },
{ "type": "Feature", "properties": { "osm_id": 1462114321, "name": "Ausbildungszentrum" }, "geometry": { "type": "Point", "coordinates": [ 16.3875193, 48.2077424 ] } },
{ "type": "Feature", "properties": { "osm_id": 1462114326, "name": "Meridian Sprachenzentrum" }, "geometry": { "type": "Point", "coordinates": [ 16.3882664, 48.2064205 ] } },
{ "type": "Feature", "properties": { "osm_id": 1467051530, "name": "ABC Lernhaus" }, "geometry": { "type": "Point", "coordinates": [ 16.3279035, 48.1909807 ] } },
{ "type": "Feature", "properties": { "osm_id": 1501815140, "name": "Urania Volkshochschule" }, "geometry": { "type": "Point", "coordinates": [ 16.3839142, 48.2116213 ] } },
{ "type": "Feature", "properties": { "osm_id": 1501971044, "name": "Berufsschule für Baugewerbe Wien" }, "geometry": { "type": "Point", "coordinates": [ 16.4326257, 48.2414353 ] } },
{ "type": "Feature", "properties": { "osm_id": 1591079448, "name": null }, "geometry": { "type": "Point", "coordinates": [ 16.3622168, 48.2014144 ] } },
{ "type": "Feature", "properties": { "osm_id": 1608490962, "name": "Mittelschule Steinbauergasse" }, "geometry": { "type": "Point", "coordinates": [ 16.3410732, 48.1821784 ] } },
{ "type": "Feature", "properties": { "osm_id": 1636994470, "name": "Volkshochschule Floridsdorf Zweigstelle Neu-Stammersdorf" }, "geometry": { "type": "Point", "coordinates": [ 16.4167249, 48.2916845 ] } },
{ "type": "Feature", "properties": { "osm_id": 1655047397, "name": null }, "geometry": { "type": "Point", "coordinates": [ 16.4153011, 48.2925461 ] } },
{ "type": "Feature", "properties": { "osm_id": 1679546494, "name": "Islamisches Realgymnasium Wien" }, "geometry": { "type": "Point", "coordinates": [ 16.3261305, 48.1854134 ] } },
{ "type": "Feature", "properties": { "osm_id": 1691725296, "name": "Sperlgymnasium" }, "geometry": { "type": "Point", "coordinates": [ 16.3780482, 48.2158561 ] } },
{ "type": "Feature", "properties": { "osm_id": 1701363961, "name": "Schulkompetenzzentrum für Prävention, Inklusion und Rehabilitation - Volksschule im Alsergrund" }, "geometry": { "type": "Point", "coordinates": [ 16.3650633, 48.2228383 ] } },
{ "type": "Feature", "properties": { "osm_id": 1701364332, "name": "Musikschule Alsergrund" }, "geometry": { "type": "Point", "coordinates": [ 16.3647239, 48.2228731 ] } },
{ "type": "Feature", "properties": { "osm_id": 1705455271, "name": "Gymnasium De La Salle Schule Strebersdorf" }, "geometry": { "type": "Point", "coordinates": [ 16.3885528, 48.2966023 ] } },
{ "type": "Feature", "properties": { "osm_id": 1705455572, "name": "Volksschule De La Salle Schule Strebersdorf" }, "geometry": { "type": "Point", "coordinates": [ 16.3887432, 48.2969234 ] } },
{ "type": "Feature", "properties": { "osm_id": 1717933619, "name": "Mittelschule Pfeilgasse" }, "geometry": { "type": "Point", "coordinates": [ 16.3411127, 48.2097845 ] } },
{ "type": "Feature", "properties": { "osm_id": 1729200888, "name": "FMS Schaumburgergasse" }, "geometry": { "type": "Point", "coordinates": [ 16.3680428, 48.1910293 ] } },
{ "type": "Feature", "properties": { "osm_id": 1770367141, "name": "Evangelische Volksschule Währing Lutherschule" }, "geometry": { "type": "Point", "coordinates": [ 16.3396393, 48.2206632 ] } },
{ "type": "Feature", "properties": { "osm_id": 1770758955, "name": "pVS Judenplatz" }, "geometry": { "type": "Point", "coordinates": [ 16.3692494, 48.2115155 ] } },
{ "type": "Feature", "properties": { "osm_id": 1785322411, "name": "Freie Schule" }, "geometry": { "type": "Point", "coordinates": [ 16.3536672, 48.1931998 ] } },
{ "type": "Feature", "properties": { "osm_id": 1838278744, "name": "Schulzentrum 14" }, "geometry": { "type": "Point", "coordinates": [ 16.3110155, 48.2019302 ] } },
{ "type": "Feature", "properties": { "osm_id": 1846906867, "name": "Le Bon Mot Französischinstitut" }, "geometry": { "type": "Point", "coordinates": [ 16.3532813, 48.2121743 ] } },
{ "type": "Feature", "properties": { "osm_id": 1852161228, "name": "Integrative Schule Hernals" }, "geometry": { "type": "Point", "coordinates": [ 16.3100907, 48.2257437 ] } },
{ "type": "Feature", "properties": { "osm_id": 1860532529, "name": "KMS In der Krim" }, "geometry": { "type": "Point", "coordinates": [ 16.3374053, 48.2426909 ] } },
{ "type": "Feature", "properties": { "osm_id": 1870541238, "name": "Musikschule Rudolfsheim-Fünfhaus" }, "geometry": { "type": "Point", "coordinates": [ 16.3244459, 48.1900442 ] } },
{ "type": "Feature", "properties": { "osm_id": 1873924129, "name": "Hilfswerk Spielothek" }, "geometry": { "type": "Point", "coordinates": [ 16.3433415, 48.2009754 ] } },
{ "type": "Feature", "properties": { "osm_id": 1932157595, "name": "Volksschule Johnstraße" }, "geometry": { "type": "Point", "coordinates": [ 16.3190824, 48.19718 ] } },
{ "type": "Feature", "properties": { "osm_id": 1937641151, "name": "Neue Mittelschule Schop Währing" }, "geometry": { "type": "Point", "coordinates": [ 16.3351035, 48.2262662 ] } },
{ "type": "Feature", "properties": { "osm_id": 1937641157, "name": "Fachmittelschule Wien 18" }, "geometry": { "type": "Point", "coordinates": [ 16.3346365, 48.2264669 ] } },
{ "type": "Feature", "properties": { "osm_id": 1965658093, "name": "Schule Maria-Regina" }, "geometry": { "type": "Point", "coordinates": [ 16.3550053, 48.2413627 ] } },
{ "type": "Feature", "properties": { "osm_id": 1967273261, "name": "Österreichisches Lateinamerika-Institut" }, "geometry": { "type": "Point", "coordinates": [ 16.3645368, 48.2181099 ] } },
{ "type": "Feature", "properties": { "osm_id": 1972147434, "name": "Caritas Ausbildungszentrum für Sozialberufe" }, "geometry": { "type": "Point", "coordinates": [ 16.3666376, 48.2231877 ] } },
{ "type": "Feature", "properties": { "osm_id": 1975050259, "name": "Volksschule Karl-Löwe-Gasse" }, "geometry": { "type": "Point", "coordinates": [ 16.3401798, 48.1781322 ] } },
{ "type": "Feature", "properties": { "osm_id": 1975692463, "name": "Wiener Mittelschule Loquaiplatz" }, "geometry": { "type": "Point", "coordinates": [ 16.347945, 48.1949041 ] } },
{ "type": "Feature", "properties": { "osm_id": 1979161699, "name": "Mittelschule Schäffergasse" }, "geometry": { "type": "Point", "coordinates": [ 16.3658032, 48.1944437 ] } },
{ "type": "Feature", "properties": { "osm_id": 1997894837, "name": "Bildungsgemeinschaft St. Marien" }, "geometry": { "type": "Point", "coordinates": [ 16.3446771, 48.1923681 ] } },
{ "type": "Feature", "properties": { "osm_id": 2011103937, "name": "Mittelschule Herthergasse" }, "geometry": { "type": "Point", "coordinates": [ 16.3414935, 48.18163 ] } },
{ "type": "Feature", "properties": { "osm_id": 2049413799, "name": "AMADEUS International School Vienna" }, "geometry": { "type": "Point", "coordinates": [ 16.3203274, 48.2359625 ] } },
{ "type": "Feature", "properties": { "osm_id": 2143969542, "name": "Karl Schubert Schule" }, "geometry": { "type": "Point", "coordinates": [ 16.2703092, 48.1525468 ] } },
{ "type": "Feature", "properties": { "osm_id": 2181036989, "name": "Volksschule Wien XVIII Bischof-Faber-Platz" }, "geometry": { "type": "Point", "coordinates": [ 16.3247311, 48.233779 ] } },
{ "type": "Feature", "properties": { "osm_id": 2322308805, "name": "Hans-Christian-Andersen-Volksschule" }, "geometry": { "type": "Point", "coordinates": [ 16.3080264, 48.2087256 ] } },
{ "type": "Feature", "properties": { "osm_id": 2434565914, "name": "BG/BRG/BORG Polgarstraße" }, "geometry": { "type": "Point", "coordinates": [ 16.4514603, 48.2322513 ] } },
{ "type": "Feature", "properties": { "osm_id": 2450220997, "name": "BHAK Polgarstraße" }, "geometry": { "type": "Point", "coordinates": [ 16.4517837, 48.2325672 ] } },
{ "type": "Feature", "properties": { "osm_id": 2619551537, "name": "Musikschule Hernals" }, "geometry": { "type": "Point", "coordinates": [ 16.3324398, 48.2188112 ] } },
{ "type": "Feature", "properties": { "osm_id": 2619649578, "name": "Volkshochschule Hernals" }, "geometry": { "type": "Point", "coordinates": [ 16.3323969, 48.2190239 ] } },
{ "type": "Feature", "properties": { "osm_id": 2812528348, "name": "Volksschule Zinckgasse" }, "geometry": { "type": "Point", "coordinates": [ 16.3348975, 48.1993101 ] } },
{ "type": "Feature", "properties": { "osm_id": 3018699521, "name": "Volkshochschule Donaustadt" }, "geometry": { "type": "Point", "coordinates": [ 16.4385506, 48.2407029 ] } },
{ "type": "Feature", "properties": { "osm_id": 3049359410, "name": "Friedrich Eymann Waldorfschule" }, "geometry": { "type": "Point", "coordinates": [ 16.2844769, 48.1894194 ] } },
{ "type": "Feature", "properties": { "osm_id": 3053999401, "name": "Schulzentrum St. Franziskus" }, "geometry": { "type": "Point", "coordinates": [ 16.3986825, 48.1995943 ] } },
{ "type": "Feature", "properties": { "osm_id": 3105972477, "name": "Franz Jonas Europaschule" }, "geometry": { "type": "Point", "coordinates": [ 16.391276, 48.2657325 ] } },
{ "type": "Feature", "properties": { "osm_id": 3147843099, "name": "Berufsförderungsinstitut" }, "geometry": { "type": "Point", "coordinates": [ 16.3630074, 48.2405771 ] } },
{ "type": "Feature", "properties": { "osm_id": 3201284290, "name": "Vienna Elementary School - Vienna European School" }, "geometry": { "type": "Point", "coordinates": [ 16.3316963, 48.2275176 ] } },
{ "type": "Feature", "properties": { "osm_id": 3218592232, "name": "Islamisches Zentrum Wien - Schule" }, "geometry": { "type": "Point", "coordinates": [ 16.3981102, 48.2451765 ] } },
{ "type": "Feature", "properties": { "osm_id": 3510316144, "name": "Abendgymnasium Wien" }, "geometry": { "type": "Point", "coordinates": [ 16.4059069, 48.2696175 ] } },
{ "type": "Feature", "properties": { "osm_id": 3596936484, "name": "Expositur der polytechnischen Schule Engerthstraße 78-80" }, "geometry": { "type": "Point", "coordinates": [ 16.3834078, 48.2902309 ] } },
{ "type": "Feature", "properties": { "osm_id": 3747976275, "name": "Volkshochschule Meidling" }, "geometry": { "type": "Point", "coordinates": [ 16.3382149, 48.1825933 ] } },
{ "type": "Feature", "properties": { "osm_id": 3763713057, "name": "Schülerheim" }, "geometry": { "type": "Point", "coordinates": [ 16.3891315, 48.1965178 ] } },
{ "type": "Feature", "properties": { "osm_id": 3771171388, "name": "Volksschule II" }, "geometry": { "type": "Point", "coordinates": [ 16.4014145, 48.2521717 ] } },
{ "type": "Feature", "properties": { "osm_id": 3779752441, "name": "Musikschule Hansson-Zentrum" }, "geometry": { "type": "Point", "coordinates": [ 16.3840672, 48.1525836 ] } },
{ "type": "Feature", "properties": { "osm_id": 3792841033, "name": "VHS Volkshochschule Meidling" }, "geometry": { "type": "Point", "coordinates": [ 16.3352862, 48.1843383 ] } },
{ "type": "Feature", "properties": { "osm_id": 4088761130, "name": "Maturaschule" }, "geometry": { "type": "Point", "coordinates": [ 16.3430166, 48.2037319 ] } },
{ "type": "Feature", "properties": { "osm_id": 4088776308, "name": "Überbau Akademie" }, "geometry": { "type": "Point", "coordinates": [ 16.3430635, 48.2019513 ] } },
{ "type": "Feature", "properties": { "osm_id": 4097784808, "name": "Polytechnische Schule Wien" }, "geometry": { "type": "Point", "coordinates": [ 16.3542477, 48.2042263 ] } },
{ "type": "Feature", "properties": { "osm_id": 4153861234, "name": "VHS Mauer" }, "geometry": { "type": "Point", "coordinates": [ 16.2694245, 48.1521126 ] } },
{ "type": "Feature", "properties": { "osm_id": 4251247905, "name": null }, "geometry": { "type": "Point", "coordinates": [ 16.2816122, 48.1632337 ] } },
{ "type": "Feature", "properties": { "osm_id": 4283760543, "name": "Städtischer Kindergarten" }, "geometry": { "type": "Point", "coordinates": [ 16.3934106, 48.1992642 ] } },
{ "type": "Feature", "properties": { "osm_id": 4327070861, "name": "Schule für medizinische Assistenzberufe" }, "geometry": { "type": "Point", "coordinates": [ 16.3932677, 48.2532423 ] } },
{ "type": "Feature", "properties": { "osm_id": 4331512216, "name": "ZIS 17" }, "geometry": { "type": "Point", "coordinates": [ 16.3313055, 48.2229572 ] } },
{ "type": "Feature", "properties": { "osm_id": 4374640031, "name": "Berufsschule für Büroberufe" }, "geometry": { "type": "Point", "coordinates": [ 16.3191457, 48.1975485 ] } },
{ "type": "Feature", "properties": { "osm_id": 4451104708, "name": "Neue Mittelschule Spallartgasse" }, "geometry": { "type": "Point", "coordinates": [ 16.3062626, 48.2008951 ] } },
{ "type": "Feature", "properties": { "osm_id": 4451104709, "name": "Volksschule Zennerstraße" }, "geometry": { "type": "Point", "coordinates": [ 16.3062867, 48.2014243 ] } },
{ "type": "Feature", "properties": { "osm_id": 4510626992, "name": "Wiener Schule der Osteopathie" }, "geometry": { "type": "Point", "coordinates": [ 16.293228, 48.188623 ] } },
{ "type": "Feature", "properties": { "osm_id": 4653471041, "name": "Musikschule Meidling" }, "geometry": { "type": "Point", "coordinates": [ 16.3312612, 48.1749788 ] } },
{ "type": "Feature", "properties": { "osm_id": 4692539239, "name": "Musikschule Döbling" }, "geometry": { "type": "Point", "coordinates": [ 16.3556596, 48.2424322 ] } },
{ "type": "Feature", "properties": { "osm_id": 4813950377, "name": "Volksschule Pastorstraße" }, "geometry": { "type": "Point", "coordinates": [ 16.4444854, 48.2719585 ] } },
{ "type": "Feature", "properties": { "osm_id": 4813950378, "name": "Neue Sportmittelschule Floridsdorf" }, "geometry": { "type": "Point", "coordinates": [ 16.4433467, 48.271797 ] } },
{ "type": "Feature", "properties": { "osm_id": 4989609122, "name": "Kampfkunstschule Dojang Wien Taekwondo" }, "geometry": { "type": "Point", "coordinates": [ 16.3422279, 48.2205287 ] } },
{ "type": "Feature", "properties": { "osm_id": 5139612424, "name": "Jam Music Lab University" }, "geometry": { "type": "Point", "coordinates": [ 16.4191997, 48.1847809 ] } },
{ "type": "Feature", "properties": { "osm_id": 5218215107, "name": "Segelschule Hofbauer" }, "geometry": { "type": "Point", "coordinates": [ 16.4270242, 48.2408691 ] } },
{ "type": "Feature", "properties": { "osm_id": 5250896645, "name": "Volksschule Johann-Hoffmann-Platz" }, "geometry": { "type": "Point", "coordinates": [ 16.3265875, 48.1708868 ] } },
{ "type": "Feature", "properties": { "osm_id": 5276897780, "name": "GRG 11" }, "geometry": { "type": "Point", "coordinates": [ 16.4116551, 48.1733669 ] } },
{ "type": "Feature", "properties": { "osm_id": 5352498008, "name": "Städtischer Kindergarten" }, "geometry": { "type": "Point", "coordinates": [ 16.3609593, 48.1914971 ] } },
{ "type": "Feature", "properties": { "osm_id": 5382841238, "name": "Berufsschule für Büroberufe" }, "geometry": { "type": "Point", "coordinates": [ 16.3154866, 48.1945835 ] } },
{ "type": "Feature", "properties": { "osm_id": 5416838517, "name": "VHS Heiligenstadt" }, "geometry": { "type": "Point", "coordinates": [ 16.3645316, 48.2541124 ] } },
{ "type": "Feature", "properties": { "osm_id": 5423005145, "name": "Musikschule Liesing" }, "geometry": { "type": "Point", "coordinates": [ 16.2802451, 48.1337538 ] } },
{ "type": "Feature", "properties": { "osm_id": 5461370319, "name": "Schule der Stadt Wien" }, "geometry": { "type": "Point", "coordinates": [ 16.5007087, 48.2230959 ] } },
{ "type": "Feature", "properties": { "osm_id": 6049827292, "name": "Astrid Lindgren Zentrum" }, "geometry": { "type": "Point", "coordinates": [ 16.2738382, 48.1382005 ] } },
{ "type": "Feature", "properties": { "osm_id": 6248377597, "name": null }, "geometry": { "type": "Point", "coordinates": [ 16.3546956, 48.2417412 ] } },
{ "type": "Feature", "properties": { "osm_id": 6248377598, "name": null }, "geometry": { "type": "Point", "coordinates": [ 16.3546113, 48.2420538 ] } },
{ "type": "Feature", "properties": { "osm_id": 6248377599, "name": "Maria Regina - AHS" }, "geometry": { "type": "Point", "coordinates": [ 16.3537922, 48.2425266 ] } },
{ "type": "Feature", "properties": { "osm_id": 6297781807, "name": "a bis zett" }, "geometry": { "type": "Point", "coordinates": [ 16.3537862, 48.211443 ] } },
{ "type": "Feature", "properties": { "osm_id": 8072087017, "name": "Vienna Bilingual School" }, "geometry": { "type": "Point", "coordinates": [ 16.3148292, 48.2096187 ] } },
{ "type": "Feature", "properties": { "osm_id": 8198971687, "name": "Volksschule - St. Franziskus" }, "geometry": { "type": "Point", "coordinates": [ 16.39777, 48.1998997 ] } },
{ "type": "Feature", "properties": { "osm_id": 8550802837, "name": "Musikmittelschule Döbling" }, "geometry": { "type": "Point", "coordinates": [ 16.351965, 48.2411239 ] } },
{ "type": "Feature", "properties": { "osm_id": 8764622665, "name": null }, "geometry": { "type": "Point", "coordinates": [ 16.382564, 48.2148736 ] } },
{ "type": "Feature", "properties": { "osm_id": 9177267531, "name": "Lauder Business School" }, "geometry": { "type": "Point", "coordinates": [ 16.3530204, 48.24249 ] } },
{ "type": "Feature", "properties": { "osm_id": 9231315869, "name": "Ganztagsvolksschule Hammerfestweg 1" }, "geometry": { "type": "Point", "coordinates": [ 16.4721067, 48.2162743 ] } },
{ "type": "Feature", "properties": { "osm_id": 9231315870, "name": "Schwerhörigenschule Wien" }, "geometry": { "type": "Point", "coordinates": [ 16.4717232, 48.216529 ] } },
{ "type": "Feature", "properties": { "osm_id": 9236072419, "name": "VHS Donaustadt" }, "geometry": { "type": "Point", "coordinates": [ 16.4720786, 48.2165058 ] } },
{ "type": "Feature", "properties": { "osm_id": 9237312176, "name": "Europäische Volksschule Goldschlagstraße" }, "geometry": { "type": "Point", "coordinates": [ 16.3352777, 48.1989567 ] } },
{ "type": "Feature", "properties": { "osm_id": 9405031198, "name": "Barmherzige Bruder Pflegeakademie Wien" }, "geometry": { "type": "Point", "coordinates": [ 16.3804392, 48.2153813 ] } },
{ "type": "Feature", "properties": { "osm_id": 9589783179, "name": "Avicenna" }, "geometry": { "type": "Point", "coordinates": [ 16.3890568, 48.2758727 ] } },
{ "type": "Feature", "properties": { "osm_id": 9778904168, "name": "Volksschule Gaullachergasse" }, "geometry": { "type": "Point", "coordinates": [ 16.3327571, 48.2120802 ] } },
{ "type": "Feature", "properties": { "osm_id": 9926242747, "name": "MS am Johann-Hoffmann-Platz" }, "geometry": { "type": "Point", "coordinates": [ 16.3264601, 48.170646 ] } },
{ "type": "Feature", "properties": { "osm_id": 10099303660, "name": "Volksschule Robert Blum Gasse" }, "geometry": { "type": "Point", "coordinates": [ 16.374167, 48.2485658 ] } },
{ "type": "Feature", "properties": { "osm_id": 10143376323, "name": "Elisabethschule" }, "geometry": { "type": "Point", "coordinates": [ 16.3749457, 48.1903642 ] } },
{ "type": "Feature", "properties": { "osm_id": 10185987494, "name": "Schule der Stadt Wien" }, "geometry": { "type": "Point", "coordinates": [ 16.3024307, 48.1540125 ] } },
{ "type": "Feature", "properties": { "osm_id": 10563678750, "name": "W@lz" }, "geometry": { "type": "Point", "coordinates": [ 16.2948296, 48.1982117 ] } },
{ "type": "Feature", "properties": { "osm_id": 10861878851, "name": "VHS Veranstaltungszentrum Praterstern" }, "geometry": { "type": "Point", "coordinates": [ 16.3897824, 48.2190525 ] } },
{ "type": "Feature", "properties": { "osm_id": 10932265935, "name": "Volksschule Marco Polo" }, "geometry": { "type": "Point", "coordinates": [ 16.4197687, 48.2779936 ] } },
{ "type": "Feature", "properties": { "osm_id": 11010243798, "name": "Volkschule für Knaben und Mädchen" }, "geometry": { "type": "Point", "coordinates": [ 16.3744864, 48.1790539 ] } },
{ "type": "Feature", "properties": { "osm_id": 11391855911, "name": "Private Mittelschule St. Elisabeth" }, "geometry": { "type": "Point", "coordinates": [ 16.375444, 48.2222798 ] } },
{ "type": "Feature", "properties": { "osm_id": 11606189717, "name": "GTVS Langobardenstraße" }, "geometry": { "type": "Point", "coordinates": [ 16.4712604, 48.2189355 ] } },
{ "type": "Feature", "properties": { "osm_id": 11606189718, "name": "GTMS Langobardenstraße" }, "geometry": { "type": "Point", "coordinates": [ 16.4712604, 48.2189355 ] } },
{ "type": "Feature", "properties": { "osm_id": 11670292559, "name": null }, "geometry": { "type": "Point", "coordinates": [ 16.4545801, 48.2525387 ] } },
{ "type": "Feature", "properties": { "osm_id": 11901725984, "name": "Waldorf Behindertenbetreuung" }, "geometry": { "type": "Point", "coordinates": [ 16.282843, 48.1889803 ] } },
{ "type": "Feature", "properties": { "osm_id": 11920381292, "name": null }, "geometry": { "type": "Point", "coordinates": [ 16.3761711, 48.2385984 ] } },
{ "type": "Feature", "properties": { "osm_id": 12010538098, "name": "Volksschule Selma-Lagerlöf-Gasse" }, "geometry": { "type": "Point", "coordinates": [ 16.3755432, 48.1509346 ] } },
{ "type": "Feature", "properties": { "osm_id": 12133122701, "name": "42 Vienna" }, "geometry": { "type": "Point", "coordinates": [ 16.3683296, 48.2484523 ] } },
{ "type": "Feature", "properties": { "osm_id": 12169307750, "name": "Mittelschule Brüßlgasse" }, "geometry": { "type": "Point", "coordinates": [ 16.3213961, 48.2083223 ] } },
{ "type": "Feature", "properties": { "osm_id": 12169307751, "name": "Volksschule Brüßlgasse" }, "geometry": { "type": "Point", "coordinates": [ 16.3214371, 48.2081217 ] } },
{ "type": "Feature", "properties": { "osm_id": 12169811058, "name": "Volksschule Hebbelplatz" }, "geometry": { "type": "Point", "coordinates": [ 16.3789697, 48.16647 ] } },
{ "type": "Feature", "properties": { "osm_id": 12169811059, "name": "Inklusive Schule Hebbelplatz" }, "geometry": { "type": "Point", "coordinates": [ 16.3786116, 48.1665416 ] } },
{ "type": "Feature", "properties": { "osm_id": 12171222416, "name": "Mittelschule Jochbergengasse" }, "geometry": { "type": "Point", "coordinates": [ 16.4013743, 48.2800691 ] } },
{ "type": "Feature", "properties": { "osm_id": 12171222417, "name": "Polytechnische Schule und Fachmittelschule Wien" }, "geometry": { "type": "Point", "coordinates": [ 16.4014828, 48.2806815 ] } },
{ "type": "Feature", "properties": { "osm_id": 12214039256, "name": "Schule bei der Botschaft Russlands" }, "geometry": { "type": "Point", "coordinates": [ 16.4693473, 48.2236296 ] } },
{ "type": "Feature", "properties": { "osm_id": 12271040595, "name": "VS Schillgasse" }, "geometry": { "type": "Point", "coordinates": [ 16.3884909, 48.2682597 ] } },
{ "type": "Feature", "properties": { "osm_id": 12271071436, "name": "Polytechnische Schule" }, "geometry": { "type": "Point", "coordinates": [ 16.403822, 48.2545825 ] } },
{ "type": "Feature", "properties": { "osm_id": 12271083138, "name": "Vienna Business School Floridsdorf" }, "geometry": { "type": "Point", "coordinates": [ 16.4034183, 48.253631 ] } },
{ "type": "Feature", "properties": { "osm_id": 12271101689, "name": "AHS Franklinstraße 26" }, "geometry": { "type": "Point", "coordinates": [ 16.4044869, 48.2528663 ] } },
{ "type": "Feature", "properties": { "osm_id": 12600553901, "name": "Ätsch" }, "geometry": { "type": "Point", "coordinates": [ 16.3536714, 48.1932181 ] } },
{ "type": "Feature", "properties": { "osm_id": 12603861623, "name": "Praxis Mittelschule Wien" }, "geometry": { "type": "Point", "coordinates": [ 16.3739453, 48.1663006 ] } },
{ "type": "Feature", "properties": { "osm_id": 12653323441, "name": "Volkshochschule PAHO" }, "geometry": { "type": "Point", "coordinates": [ 16.3840641, 48.1524442 ] } },
{ "type": "Feature", "properties": { "osm_id": 12955159317, "name": "Volkshochschule Liesing" }, "geometry": { "type": "Point", "coordinates": [ 16.2824814, 48.1345645 ] } },
{ "type": "Feature", "properties": { "osm_id": 13070546815, "name": "Volkshochschule Großfeldsiedlung" }, "geometry": { "type": "Point", "coordinates": [ 16.4462679, 48.272584 ] } },
{ "type": "Feature", "properties": { "osm_id": 13101132439, "name": "Volksschule Pfeilgasse" }, "geometry": { "type": "Point", "coordinates": [ 16.3414493, 48.209578 ] } },
{ "type": "Feature", "properties": { "osm_id": 13120035056, "name": "Schulterblick - Die Radfahrschule" }, "geometry": { "type": "Point", "coordinates": [ 16.3438689, 48.1943595 ] } },
{ "type": "Feature", "properties": { "osm_id": 13192518901, "name": "Volksschule Greiseneckergasse" }, "geometry": { "type": "Point", "coordinates": [ 16.3743332, 48.2316542 ] } },
{ "type": "Feature", "properties": { "osm_id": 13957514720, "name": "Hochhaus" }, "geometry": { "type": "Point", "coordinates": [ 16.3695552, 48.2365698 ] } }
]
}
